[{"OBJECT_NAME":"STARLINK-6220","OBJECT_ID":"2023-064AL","EPOCH":"2026-03-09T13:55:59.837088","MEAN_MOTION":14.98330554,"ECCENTRICITY":0.0003282,"INCLINATION":69.9998,"RA_OF_ASC_NODE":124.7071,"ARG_OF_PERICENTER":269.8057,"MEAN_ANOMALY":90.2726,"EPHEMERIS_TYPE":0,"CLASSIFICATION_TYPE":"U","NORAD_CAT_ID":56482,"ELEMENT_SET_NO":999,"REV_AT_EPOCH":15572,"BSTAR":-3.4061e-5,"MEAN_MOTION_DOT":-4.99e-6,"MEAN_MOTION_DDOT":0},{"OBJECT_NAME":"FENGYUN 1C DEB","OBJECT_ID":"1999-025DXL","EPOCH":"2026-02-25T04:10:22.321344","MEAN_MOTION":15.11307044,"ECCENTRICITY":0.00591738,"INCLINATION":99.4273,"RA_OF_ASC_NODE":43.0945,"ARG_OF_PERICENTER":165.3437,"MEAN_ANOMALY":194.9519,"EPHEMERIS_TYPE":0,"CLASSIFICATION_TYPE":"U","NORAD_CAT_ID":36283,"ELEMENT_SET_NO":999,"REV_AT_EPOCH":67788,"BSTAR":0.0012995165,"MEAN_MOTION_DOT":0.00022794,"MEAN_MOTION_DDOT":0}]
